TYVAK-0173              
1 48892U 21059P   25167.70967275  .00001792  00000+0  24237-3 0  9991
2 48892  95.9875 330.5806 0009656 176.5738 183.5547 14.79751657214152
TUBIN                   
1 48900U 21059X   25168.16052094  .00036061  00000+0  42653-3 0  9995
2 48900  97.6759 338.0062 0003806 190.0532 170.0649 15.61201032221222
MANDRAKE 2 ABLE         
1 48907U 21059AE  25168.19733470  .00010753  00000+0  27274-3 0  9991
2 48907  97.6897 330.0370 0004995 231.9382 128.1413 15.39872873220701
MANDRAKE 2 BAKER        
1 48908U 21059AF  25168.19405152  .00012439  00000+0  29659-3 0  9997
2 48908  97.6898 331.1956 0004596 211.8168 148.2801 15.41712752220763
PACE-1                  
1 48909U 21059AG  25167.73469441  .00016878  00000+0  34066-3 0  9997
2 48909  97.6786 331.3084 0004644 204.2478 155.8553 15.46586458220842
YAM-2                   
1 48911U 21059AJ  25167.46055380  .00097627  00000+0  53746-3 0  9990
2 48911  97.6676 343.6726 0004743 186.5522 173.5683 15.79415096221504
YAM-3                   
1 48915U 21059AN  25167.68597667  .00007941  00000+0  21350-3 0  9993
2 48915  97.6847 329.0475 0005660 219.3713 140.7120 15.38174443220620
FARADAY_PHOENIX         
1 48924U 21059AX  25167.43215240  .00011025  00000+0  24541-3 0  9993
2 48924  97.6860 333.2138 0008341 210.0285 150.0485 15.43784933220826
DEMO8 (TENZING)         
1 48951U 21059CA  25167.70820955  .00010156  00000+0  25217-3 0  9993
2 48951  97.6933 332.8568 0008435 227.6349 132.4183 15.40518403220797
ASTROCAST-0201          
1 48954U 21059CD  25167.70794883  .00025580  00000+0  37134-3 0  9994
2 48954  97.6555 336.7228 0003800 231.0116 129.0799 15.55801184221207
ASTROCAST-0203          
1 48955U 21059CE  25167.72782086  .00024299  00000+0  35538-3 0  9991
2 48955  97.6561 336.2769 0003428 198.0281 162.0852 15.55610145221203
ASTROCAST-0205          
1 48960U 21059CK  25168.20094909  .00035844  00000+0  51502-3 0  9998
2 48960  97.6525 337.0448 0007472 176.3776 183.7533 15.55989998221282
NAPA-2                  
1 48963U 21059CN  25168.19667392  .00016262  00000+0  32512-3 0  9994
2 48963  97.6795 330.7913 0005923 207.9347 152.1585 15.46865152220804
W-CUBE                  
1 48965U 21059CQ  25167.41182310  .00067236  00000+0  52087-3 0  9998
2 48965  97.6686 339.4016 0005102 184.1743 175.9478 15.71636744221244
JILIN-1 GAOFEN 3D01     
1 49004U 21061B   25168.16543940  .00040778  00000+0  62399-3 0  9998
2 49004  97.3458 241.9008 0009782 182.0969 178.0246 15.54213328219802
JILIN-1 GAOFEN 3D03     
1 49006U 21061D   25168.14124488  .00021501  00000+0  49268-3 0  9993
2 49006  97.3422 233.7113 0005292 353.5224   6.5954 15.42770088219272
XINGSHIDAI 10           
1 49007U 21061E   25168.16862483  .00020438  00000+0  47441-3 0  9999
2 49007  97.3413 233.7347 0004378 338.6628  21.4436 15.42396852219272
FENGYUN 3E              
1 49008U 21062A   25168.24726565  .00000000  00000+0  20477-4 0  9994
2 49008  98.7414 170.8824 0002708  73.6368 286.5106 14.19867557204799
ISS (NAUKA)             
1 49044U 21066A   25167.81200506  .00009685  00000+0  17597-3 0  9998
2 49044  51.6369 308.9364 0001513 257.3580 102.7240 15.50239644220735
LEDSAT                  
1 49069U 21073D   25168.19004981  .00058772  00000+0  67614-3 0  9990
2 49069  97.3879 250.0502 0008491  58.3201 301.8884 15.61783083212625
STARLINK-3100           
1 49144U 21082Q   25167.46267943  .00000149  00000+0  20297-4 0  9994
2 49144  69.9990 245.6941 0003643 268.4116  91.6626 14.98332118206100
CUTE                    
1 49263U 21088D   25168.18456629  .00011649  00000+0  23018-3 0  9993
2 49263  97.4503 244.6606 0007849 203.2838 156.8058 15.47266387205601
2021-091B               
1 49316U 21091B   25168.18294952  .00002860  00000+0  13856-3 0  9999
2 49316  97.4507 356.4073 0013904 154.1171 206.0762 15.19275036203605
SDGSAT 1                
1 49387U 21100A   25168.21857578  .00002799  00000+0  13362-3 0  9994
2 49387  97.3136 222.6530 0007877 142.7086 217.4697 15.19836973200492
TEIKYOSAT-4 (OORURI)    
1 49396U 21102B   25167.85184225  .00002341  00000+0  15718-3 0  9997
2 49396  97.4090 206.0177 0014104 107.1651 253.1122 15.07672353197648
Z-SAT                   
1 49399U 21102E   25168.15102482  .00003225  00000+0  17803-3 0  9998
2 49399  97.3789 209.4486 0019763  79.5598 280.7860 15.14473470198129
HIBARI                  
1 49400U 21102F   25167.86915749  .00007649  00000+0  32662-3 0  9990
2 49400  97.3752 214.1053 0015455  58.9659 301.3093 15.23053386198430
KOSEN-1                 
1 49402U 21102H   25168.10809098  .00005339  00000+0  24725-3 0  9994
2 49402  97.3695 212.8788 0017165  57.2545 303.0342 15.20392031198430
GLOBAL-14               
1 49469U 21106A   25167.74414108  .00010988  00000+0  32347-3 0  9999
2 49469  42.0078 273.4756 0005511   3.6249 356.4629 15.35001436201720
GAOFEN-3 02             
1 49495U 21109A   25168.25912861  .00000026  00000+0  21040-4 0  9998
2 49495  98.4105 176.4854 0002924  32.8738 327.2633 14.42217231187710
GLOBAL-12               
1 49772U 21115BA  25167.44456891  .00012533  00000+0  32900-3 0  9991
2 49772  53.2005 337.4971 0006169  88.1246 272.0466 15.39025161199404
GLOBAL-13               
1 49773U 21115BB  25167.73988502  .00014863  00000+0  38842-3 0  9992
2 49773  53.2029 337.3702 0006654  66.2286 293.9417 15.39001019199439
GLOBAL-17               
1 49949U 21120A   25167.92843128  .00011309  00000+0  32723-3 0  9992
2 49949  41.9998  34.2822 0004399 232.3060 127.7380 15.35524723198484
GLOBAL-16               
1 49950U 21120B   25167.89751715  .00011666  00000+0  33771-3 0  9990
2 49950  41.9997  34.0347 0006328 216.9431 143.0972 15.35478146198473
XW-3 (CAS-9)            
1 50466U 21131B   25168.19151189  .00000524  00000+0  17744-3 0  9992
2 50466  98.5105 257.5070 0005420 110.1318 250.0454 14.40823758182545
ION SCV-004             
1 50993U 22002K   25168.17062399  .00004064  00000+0  16184-3 0  9997
2 50993  97.3354 227.6831 0007679 197.3420 162.7558 15.25776609189553
ETV-A1                  
1 51060U 22002CE  25168.15049000  .00006748  00000+0  22211-3 0  9994
2 51060  97.3375 231.8017 0005813 199.1037 160.9988 15.31813088189802
BRO-5                   
1 51061U 22002CF  25168.17906464  .00007033  00000+0  20099-3 0  9993
2 51061  97.3446 236.0508 0006031 190.9160 169.1954 15.36291872190041
VZLUSAT-2               
1 51085U 22002DF  25168.18648665  .00040933  00000+0  55180-3 0  9991
2 51085  97.3319 241.2883 0006745 161.6446 198.5054 15.57690319190469
L-SAR 01A               
1 51284U 22007A   25168.20629387  .00000633  00000+0  74139-4 0  9999
2 51284  97.8101 175.8557 0001614  90.5682 269.5719 14.88426227184183
INSPIRESAT 1            
1 51657U 22013B   25167.04867931  .00023239  00000+0  48260-3 0  9992
2 51657  97.4884 196.8114 0004256 323.0461  37.0494 15.45680772185389
L-SAR 01B               
1 51822U 22018A   25168.17264221  .00000686  00000+0  79882-4 0  9995
2 51822  97.8117 175.8049 0001564  95.5868 264.5527 14.88422255179418
2022-019D               
1 51827U 22019D   25168.20502482  .00015185  00000+0  37964-3 0  9993
2 51827  97.3940 245.7147 0009478  32.5878 327.5952 15.40178210183080
JILIN-1 GAOFEN 03D14    
1 51831U 22019H   25168.17488910  .00020836  00000+0  49189-3 0  9994
2 51831  97.3964 248.0823 0009281  19.3061 340.8535 15.41851446183239
2022-019J               
1 51832U 22019J   25168.15824347  .00002308  00000+0  11566-3 0  9993
2 51832  97.3887 234.8572 0010597  70.4238 289.8140 15.18303437182378
JILIN-1 GAOFEN 03D16    
1 51834U 22019L   25168.15347261  .00021483  00000+0  48876-3 0  9999
2 51834  97.3940 248.4949 0006670  25.7421 334.4157 15.42976293183260
JILIN-1 GAOFEN 03D11    
1 51835U 22019M   25168.19077156  .00019871  00000+0  47333-3 0  9992
2 51835  97.3976 248.2979 0006285  44.9981 315.1774 15.41614780183245
JILIN-1 GAOFEN 03D17    
1 51838U 22019Q   25168.23129871  .00116653  00000+0  77927-3 0  9990
2 51838  97.3956 256.6608 0001178 340.5437  19.5782 15.74982324183809
JILIN-1 GAOFEN 03D15    
1 51839U 22019R   25168.18979009  .00018274  00000+0  45743-3 0  9992
2 51839  97.3949 247.6578 0005881  64.7868 295.3987 15.40128690183224
JILIN-1 GAOFEN 03D10    
1 51840U 22019S   25168.20327657  .00019906  00000+0  47438-3 0  9999
2 51840  97.3953 248.4061 0000391  84.3174 275.8117 15.41619326183259
JILIN-1 GAOFEN 03D12    
1 51841U 22019T   25168.14449110  .00018598  00000+0  46551-3 0  9993
2 51841  97.3934 247.5404 0003491  18.1700 341.9670 15.40137535183215
JILIN-1 GAOFEN 03D18    
1 51844U 22019W   25168.14922670  .00020341  00000+0  48539-3 0  9990
2 51844  97.3928 247.5839 0009743  17.6237 342.5346 15.41526825183120
2022-023F               
1 51951U 22023F   25168.17996628  .00018462  66085-7  78333-3 0  9990
2 51951  63.4892  73.8899 0097098 338.4556  21.2483 15.18531589158916
CZ-4C R/B               
1 52085U 22027B   25168.08484494 -.00000064  00000+0  33572-4 0  9990
2 52085  63.3967 310.7026 0199932  24.2607 336.7686 13.65446553162188
MERIDIAN 10             
1 52145U 22030A   25167.08168457  .00000285  00000+0  00000+0 0  9997
2 52145  62.6602 179.3436 6745040 273.3946  17.7732  2.00601861 23684
OMNI-L1                 
1 52157U 22033A   25168.18524143  .00001934  00000+0  25803-3 0  9997
2 52157  97.8683 249.3651 0006346  46.2474 313.9263 14.80718167173392
ENMAP                   
1 52159U 22033C   25167.85177135  .00000454  00000+0  74916-4 0  9993
2 52159  97.9790 250.3465 0001383  92.8583 267.2784 14.74984148172804
ARCSAT-1                
1 52161U 22033E   25167.79898817  .00007530  00000+0  16838-3 0  9996
2 52161  97.2928 252.1841 0007622  89.1204 271.0918 15.43753716179162
GLOBAL-18               
1 52196U 22034B   25167.38711225  .00009128  00000+0  24436-3 0  9995
2 52196  52.9839 190.0461 0005986 338.1042  21.9703 15.38782793180577
